[{"OBJECT_NAME":"STARLINK-31141","OBJECT_ID":"2024-012S","EPOCH":"2026-03-09T07:07:15.530592","MEAN_MOTION":15.27549168,"ECCENTRICITY":7.138e-5,"INCLINATION":42.9989,"RA_OF_ASC_NODE":167.6553,"ARG_OF_PERICENTER":245.7491,"MEAN_ANOMALY":114.3286,"EPHEMERIS_TYPE":0,"CLASSIFICATION_TYPE":"U","NORAD_CAT_ID":58803,"ELEMENT_SET_NO":999,"REV_AT_EPOCH":12117,"BSTAR":-0.00082860928,"MEAN_MOTION_DOT":-0.00022971,"MEAN_MOTION_DDOT":0},{"OBJECT_NAME":"SL-24 DEB","OBJECT_ID":"2013-066AL","EPOCH":"2026-03-09T22:28:39.180576","MEAN_MOTION":15.26992446,"ECCENTRICITY":0.00036318,"INCLINATION":97.3978,"RA_OF_ASC_NODE":75.9402,"ARG_OF_PERICENTER":273.216,"MEAN_ANOMALY":86.8663,"EPHEMERIS_TYPE":0,"CLASSIFICATION_TYPE":"U","NORAD_CAT_ID":39450,"ELEMENT_SET_NO":999,"REV_AT_EPOCH":67244,"BSTAR":0.00070559472,"MEAN_MOTION_DOT":0.00018651,"MEAN_MOTION_DDOT":0}]
